[{"OBJECT_NAME":"LUCH 5V (SDCM/PRN 141)","OBJECT_ID":"2014-023A","EPOCH":"2026-04-04T23:42:21.809088","MEAN_MOTION":1.00270325,"ECCENTRICITY":0.00028935,"INCLINATION":4.954,"RA_OF_ASC_NODE":70.4607,"ARG_OF_PERICENTER":320.3362,"MEAN_ANOMALY":252.8216,"EPHEMERIS_TYPE":0,"CLASSIFICATION_TYPE":"U","NORAD_CAT_ID":39727,"ELEMENT_SET_NO":999,"REV_AT_EPOCH":4362,"BSTAR":0,"MEAN_MOTION_DOT":-2.66e-6,"MEAN_MOTION_DDOT":0},{"OBJECT_NAME":"GPS BIIF-6  (PRN 06)","OBJECT_ID":"2014-026A","EPOCH":"2026-04-04T04:06:53.650656","MEAN_MOTION":2.00566566,"ECCENTRICITY":0.0039371,"INCLINATION":56.5319,"RA_OF_ASC_NODE":334.4006,"ARG_OF_PERICENTER":326.0604,"MEAN_ANOMALY":33.7376,"EPHEMERIS_TYPE":0,"CLASSIFICATION_TYPE":"U","NORAD_CAT_ID":39741,"ELEMENT_SET_NO":999,"REV_AT_EPOCH":8705,"BSTAR":0,"MEAN_MOTION_DOT":-9.0e-7,"MEAN_MOTION_DDOT":0},{"OBJECT_NAME":"COSMOS 2500 (755)","OBJECT_ID":"2014-032A","EPOCH":"2026-04-02T22:59:49.674048","MEAN_MOTION":2.13105929,"ECCENTRICITY":0.00051372,"INCLINATION":65.2756,"RA_OF_ASC_NODE":316.2469,"ARG_OF_PERICENTER":188.3777,"MEAN_ANOMALY":171.6663,"EPHEMERIS_TYPE":0,"CLASSIFICATION_TYPE":"U","NORAD_CAT_ID":40001,"ELEMENT_SET_NO":999,"REV_AT_EPOCH":9185,"BSTAR":0,"MEAN_MOTION_DOT":-4.4e-7,"MEAN_MOTION_DDOT":0},{"OBJECT_NAME":"GPS BIIF-7  (PRN 09)","OBJECT_ID":"2014-045A","EPOCH":"2026-04-04T18:13:40.138176","MEAN_MOTION":2.00553665,"ECCENTRICITY":0.00314,"INCLINATION":55.3044,"RA_OF_ASC_NODE":91.3884,"ARG_OF_PERICENTER":119.7821,"MEAN_ANOMALY":240.5387,"EPHEMERIS_TYPE":0,"CLASSIFICATION_TYPE":"U","NORAD_CAT_ID":40105,"ELEMENT_SET_NO":999,"REV_AT_EPOCH":8460,"BSTAR":0,"MEAN_MOTION_DOT":1.0e-8,"MEAN_MOTION_DDOT":0},{"OBJECT_NAME":"GSAT0201 (GALILEO 5)","OBJECT_ID":"2014-050A","EPOCH":"2026-04-04T13:49:15.301920","MEAN_MOTION":1.85520165,"ECCENTRICITY":0.166276,"INCLINATION":48.9567,"RA_OF_ASC_NODE":276.4486,"ARG_OF_PERICENTER":176.5217,"MEAN_ANOMALY":184.7885,"EPHEMERIS_TYPE":0,"CLASSIFICATION_TYPE":"U","NORAD_CAT_ID":40128,"ELEMENT_SET_NO":999,"REV_AT_EPOCH":7695,"BSTAR":0,"MEAN_MOTION_DOT":-4.3e-7,"MEAN_MOTION_DDOT":0},{"OBJECT_NAME":"GSAT0202 (GALILEO 6)","OBJECT_ID":"2014-050B","EPOCH":"2026-04-01T14:20:46.883040","MEAN_MOTION":1.85520784,"ECCENTRICITY":0.16633026,"INCLINATION":48.9773,"RA_OF_ASC_NODE":275.655,"ARG_OF_PERICENTER":177.1412,"MEAN_ANOMALY":183.931,"EPHEMERIS_TYPE":0,"CLASSIFICATION_TYPE":"U","NORAD_CAT_ID":40129,"ELEMENT_SET_NO":999,"REV_AT_EPOCH":7906,"BSTAR":0,"MEAN_MOTION_DOT":-5.5e-7,"MEAN_MOTION_DDOT":0},{"OBJECT_NAME":"IRNSS-1C","OBJECT_ID":"2014-061A","EPOCH":"2026-04-05T00:42:21.913056","MEAN_MOTION":1.00273058,"ECCENTRICITY":0.00208482,"INCLINATION":6.3305,"RA_OF_ASC_NODE":90.3322,"ARG_OF_PERICENTER":356.3073,"MEAN_ANOMALY":200.3264,"EPHEMERIS_TYPE":0,"CLASSIFICATION_TYPE":"U","NORAD_CAT_ID":40269,"ELEMENT_SET_NO":999,"REV_AT_EPOCH":4195,"BSTAR":0,"MEAN_MOTION_DOT":-1.59e-6,"MEAN_MOTION_DDOT":0},{"OBJECT_NAME":"GPS BIIF-8  (PRN 03)","OBJECT_ID":"2014-068A","EPOCH":"2026-04-05T03:12:35.804736","MEAN_MOTION":2.00571825,"ECCENTRICITY":0.00642967,"INCLINATION":56.9408,"RA_OF_ASC_NODE":33.7696,"ARG_OF_PERICENTER":68.3855,"MEAN_ANOMALY":292.2862,"EPHEMERIS_TYPE":0,"CLASSIFICATION_TYPE":"U","NORAD_CAT_ID":40294,"ELEMENT_SET_NO":999,"REV_AT_EPOCH":8374,"BSTAR":0,"MEAN_MOTION_DOT":-8.3e-7,"MEAN_MOTION_DDOT":0},{"OBJECT_NAME":"COSMOS 2501 (702K)","OBJECT_ID":"2014-075A","EPOCH":"2026-03-25T07:16:41.300256","MEAN_MOTION":2.13101287,"ECCENTRICITY":0.00211828,"INCLINATION":63.6158,"RA_OF_ASC_NODE":193.2737,"ARG_OF_PERICENTER":207.3153,"MEAN_ANOMALY":152.5805,"EPHEMERIS_TYPE":0,"CLASSIFICATION_TYPE":"U","NORAD_CAT_ID":40315,"ELEMENT_SET_NO":999,"REV_AT_EPOCH":8806,"BSTAR":0,"MEAN_MOTION_DOT":1.0e-8,"MEAN_MOTION_DDOT":0},{"OBJECT_NAME":"GPS BIIF-9  (PRN 26)","OBJECT_ID":"2015-013A","EPOCH":"2026-04-04T06:28:12.120672","MEAN_MOTION":2.00555779,"ECCENTRICITY":0.0108818,"INCLINATION":53.1792,"RA_OF_ASC_NODE":207.2341,"ARG_OF_PERICENTER":39.9307,"MEAN_ANOMALY":320.8601,"EPHEMERIS_TYPE":0,"CLASSIFICATION_TYPE":"U","NORAD_CAT_ID":40534,"ELEMENT_SET_NO":999,"REV_AT_EPOCH":8034,"BSTAR":0,"MEAN_MOTION_DOT":3.0e-8,"MEAN_MOTION_DDOT":0},{"OBJECT_NAME":"GSAT0203 (GALILEO 7)","OBJECT_ID":"2015-017A","EPOCH":"2026-04-04T07:16:46.263072","MEAN_MOTION":1.70475988,"ECCENTRICITY":0.0004485,"INCLINATION":56.8108,"RA_OF_ASC_NODE":343.6116,"ARG_OF_PERICENTER":297.4041,"MEAN_ANOMALY":62.597,"EPHEMERIS_TYPE":0,"CLASSIFICATION_TYPE":"U","NORAD_CAT_ID":40544,"ELEMENT_SET_NO":999,"REV_AT_EPOCH":6794,"BSTAR":0,"MEAN_MOTION_DOT":-9.5e-7,"MEAN_MOTION_DDOT":0},{"OBJECT_NAME":"GSAT0204 (GALILEO 8)","OBJECT_ID":"2015-017B","EPOCH":"2026-04-03T23:20:15.446400","MEAN_MOTION":1.70475693,"ECCENTRICITY":0.0003117,"INCLINATION":56.8167,"RA_OF_ASC_NODE":343.6389,"ARG_OF_PERICENTER":291.5044,"MEAN_ANOMALY":68.509,"EPHEMERIS_TYPE":0,"CLASSIFICATION_TYPE":"U","NORAD_CAT_ID":40545,"ELEMENT_SET_NO":999,"REV_AT_EPOCH":3098,"BSTAR":0,"MEAN_MOTION_DOT":-9.6e-7,"MEAN_MOTION_DDOT":0},{"OBJECT_NAME":"BEIDOU-3S IGSO-1S (C31)","OBJECT_ID":"2015-019A","EPOCH":"2026-03-23T06:58:51.098016","MEAN_MOTION":1.00268843,"ECCENTRICITY":0.0036261,"INCLINATION":49.3559,"RA_OF_ASC_NODE":296.4949,"ARG_OF_PERICENTER":190.1236,"MEAN_ANOMALY":255.118,"EPHEMERIS_TYPE":0,"CLASSIFICATION_TYPE":"U","NORAD_CAT_ID":40549,"ELEMENT_SET_NO":999,"REV_AT_EPOCH":4021,"BSTAR":0,"MEAN_MOTION_DOT":-1.63e-6,"MEAN_MOTION_DDOT":0},{"OBJECT_NAME":"GPS BIIF-10 (PRN 08)","OBJECT_ID":"2015-033A","EPOCH":"2026-04-04T22:16:27.028704","MEAN_MOTION":2.00560155,"ECCENTRICITY":0.01149427,"INCLINATION":54.0412,"RA_OF_ASC_NODE":270.1047,"ARG_OF_PERICENTER":29.588,"MEAN_ANOMALY":331.029,"EPHEMERIS_TYPE":0,"CLASSIFICATION_TYPE":"U","NORAD_CAT_ID":40730,"ELEMENT_SET_NO":999,"REV_AT_EPOCH":7852,"BSTAR":0,"MEAN_MOTION_DOT":-1.9e-7,"MEAN_MOTION_DDOT":0},{"OBJECT_NAME":"BEIDOU-3S M2S (C58)","OBJECT_ID":"2015-037A","EPOCH":"2026-04-03T16:29:48.088896","MEAN_MOTION":1.86232009,"ECCENTRICITY":0.00078661,"INCLINATION":54.9362,"RA_OF_ASC_NODE":304.6107,"ARG_OF_PERICENTER":276.2364,"MEAN_ANOMALY":83.6984,"EPHEMERIS_TYPE":0,"CLASSIFICATION_TYPE":"U","NORAD_CAT_ID":40748,"ELEMENT_SET_NO":999,"REV_AT_EPOCH":7273,"BSTAR":0,"MEAN_MOTION_DOT":-6.4e-7,"MEAN_MOTION_DDOT":0},{"OBJECT_NAME":"BEIDOU-3S M1S (C57)","OBJECT_ID":"2015-037B","EPOCH":"2026-04-03T21:41:35.825568","MEAN_MOTION":1.86254958,"ECCENTRICITY":0.0004693,"INCLINATION":54.9325,"RA_OF_ASC_NODE":304.5916,"ARG_OF_PERICENTER":43.1589,"MEAN_ANOMALY":316.9018,"EPHEMERIS_TYPE":0,"CLASSIFICATION_TYPE":"U","NORAD_CAT_ID":40749,"ELEMENT_SET_NO":999,"REV_AT_EPOCH":7274,"BSTAR":0,"MEAN_MOTION_DOT":-6.3e-7,"MEAN_MOTION_DDOT":0},{"OBJECT_NAME":"GSAT0205 (GALILEO 9)","OBJECT_ID":"2015-045A","EPOCH":"2026-04-02T22:25:38.377344","MEAN_MOTION":1.6741087,"ECCENTRICITY":0.0004084,"INCLINATION":54.9709,"RA_OF_ASC_NODE":223.7776,"ARG_OF_PERICENTER":270.5301,"MEAN_ANOMALY":89.369,"EPHEMERIS_TYPE":0,"CLASSIFICATION_TYPE":"U","NORAD_CAT_ID":40889,"ELEMENT_SET_NO":999,"REV_AT_EPOCH":6570,"BSTAR":0,"MEAN_MOTION_DOT":-1.6e-7,"MEAN_MOTION_DDOT":0}]
